[{"OBJECT_NAME":"STARLINK-4615","OBJECT_ID":"2022-104AJ","EPOCH":"2026-03-09T17:33:37.723104","MEAN_MOTION":15.08842231,"ECCENTRICITY":0.00012229,"INCLINATION":53.2169,"RA_OF_ASC_NODE":233.7698,"ARG_OF_PERICENTER":96.1,"MEAN_ANOMALY":264.0131,"EPHEMERIS_TYPE":0,"CLASSIFICATION_TYPE":"U","NORAD_CAT_ID":53620,"ELEMENT_SET_NO":999,"REV_AT_EPOCH":19575,"BSTAR":2.8121478e-5,"MEAN_MOTION_DOT":1.6e-6,"MEAN_MOTION_DDOT":0},{"OBJECT_NAME":"CZ-4B DEB","OBJECT_ID":"1999-057Q","EPOCH":"2026-03-09T11:26:54.640320","MEAN_MOTION":15.06874272,"ECCENTRICITY":0.0020008,"INCLINATION":98.6841,"RA_OF_ASC_NODE":262.2845,"ARG_OF_PERICENTER":336.9186,"MEAN_ANOMALY":80.9466,"EPHEMERIS_TYPE":0,"CLASSIFICATION_TYPE":"U","NORAD_CAT_ID":26128,"ELEMENT_SET_NO":999,"REV_AT_EPOCH":40054,"BSTAR":0.00062227426,"MEAN_MOTION_DOT":9.256e-5,"MEAN_MOTION_DDOT":0}]
